start=new Date('2023-03-17T00:00:00.000Z').valueOf();
sats=[{"SEMIMAJOR_AXIS":"6917.914","PERIAPSIS":"538.806","BSTAR":"-0.00001124900000","REV_AT_EPOCH":"1346","TLE_LINE2":"2 54759  53.2189 246.7434 0001406  90.0240 270.0914 15.08829082 13466","OBJECT_ID":"2022-175B","TIME_SYSTEM":"UTC","CLASSIFICATION_TYPE":"U","TLE_LINE1":"1 54759U 22175B   23075.93128187 -.00000467  00000-0 -11249-4 0  9993","APOAPSIS":"540.751","OBJECT_NAME":"STARLINK-5215","SITE":"AFETR","INCLINATION":"53.2189","MEAN_MOTION_DOT":"-0.00000467","COUNTRY_CODE":"US","RA_OF_ASC_NODE":"246.7434","LAUNCH_DATE":"2022-12-17","OBJECT_TYPE":"PAYLOAD","MEAN_MOTION_DDOT":"0.0000000000000","CENTER_NAME":"EARTH","MEAN_ANOMALY":"270.0914","DECAY_DATE":null,"MEAN_ELEMENT_THEORY":"SGP4","ELEMENT_SET_NO":"999","FILE":"3862572","NORAD_CAT_ID":"54759","RCS_SIZE":"LARGE","GP_ID":"228259861","PERIOD":"95.438","EPOCH":"2023-03-16T22:21:02.753568","EPHEMERIS_TYPE":"0","ECCENTRICITY":"0.00014060","ARG_OF_PERICENTER":"90.0240","REF_FRAME":"TEME","MEAN_MOTION":"15.08829082"},{"RCS_SIZE":"LARGE","NORAD_CAT_ID":"54760","GP_ID":"228259881","PERIOD":"95.438","EPOCH":"2023-03-16T22:48:10.155456","FILE":"3862574","EPHEMERIS_TYPE":"0","ECCENTRICITY":"0.00011880","ARG_OF_PERICENTER":"95.6495","REF_FRAME":"TEME","MEAN_MOTION":"15.08833255","MEAN_MOTION_DOT":"0.00022102","COUNTRY_CODE":"US","SITE":"AFETR","INCLINATION":"53.2150","MEAN_MOTION_DDOT":"0.0000000000000","CENTER_NAME":"EARTH","MEAN_ANOMALY":"264.4632","DECAY_DATE":null,"MEAN_ELEMENT_THEORY":"SGP4","ELEMENT_SET_NO":"999","RA_OF_ASC_NODE":"251.8531","LAUNCH_DATE":"2022-12-17","OBJECT_TYPE":"PAYLOAD","CLASSIFICATION_TYPE":"U","TIME_SYSTEM":"UTC","TLE_LINE2":"2 54760  53.2150 251.8531 0001188  95.6495 264.4632 15.08833255 13394","OBJECT_ID":"2022-175C","APOAPSIS":"540.588","OBJECT_NAME":"STARLINK-5220","TLE_LINE1":"1 54760U 22175C   23075.95011754  .00022102  00000-0  14027-2 0  9991","SEMIMAJOR_AXIS":"6917.901","PERIAPSIS":"538.944","REV_AT_EPOCH":"1339","BSTAR":"0.00140270000000"},{"ARG_OF_PERICENTER":"87.2113","REF_FRAME":"TEME","ECCENTRICITY":"0.00012790","EPHEMERIS_TYPE":"0","MEAN_MOTION":"15.08831906","FILE":"3862592","GP_ID":"228284943","NORAD_CAT_ID":"54761","RCS_SIZE":"LARGE","EPOCH":"2023-03-16T21:18:05.319648","PERIOD":"95.438","LAUNCH_DATE":"2022-12-17","RA_OF_ASC_NODE":"252.1705","OBJECT_TYPE":"PAYLOAD","CENTER_NAME":"EARTH","MEAN_MOTION_DDOT":"0.0000000000000","DECAY_DATE":null,"MEAN_ELEMENT_THEORY":"SGP4","MEAN_ANOMALY":"272.9025","ELEMENT_SET_NO":"999","SITE":"AFETR","INCLINATION":"53.2141","MEAN_MOTION_DOT":"-0.00001372","COUNTRY_CODE":"US","TLE_LINE1":"1 54761U 22175D   23075.88756157 -.00001372  00000-0 -68155-4 0  9998","OBJECT_NAME":"STARLINK-5202","APOAPSIS":"540.655","TLE_LINE2":"2 54761  53.2141 252.1705 0001279  87.2113 272.9025 15.08831906 15547","OBJECT_ID":"2022-175D","TIME_SYSTEM":"UTC","CLASSIFICATION_TYPE":"U","BSTAR":"-0.00006815500000","REV_AT_EPOCH":"1554","SEMIMAJOR_AXIS":"6917.905","PERIAPSIS":"538.885"},{"TLE_LINE1":"1 54762U 22175E   23075.87747114 -.00002244  00000-0 -12295-3 0  9993","OBJECT_NAME":"STARLINK-5214","APOAPSIS":"540.808","TLE_LINE2":"2 54762  53.2158 252.1059 0001505  76.5495 283.5664 15.08833094 15541","OBJECT_ID":"2022-175E","CLASSIFICATION_TYPE":"U","TIME_SYSTEM":"UTC","BSTAR":"-0.00012295000000","REV_AT_EPOCH":"1554","SEMIMAJOR_AXIS":"6917.901","PERIAPSIS":"538.725","REF_FRAME":"TEME","ARG_OF_PERICENTER":"76.5495","ECCENTRICITY":"0.00015050","EPHEMERIS_TYPE":"0","MEAN_MOTION":"15.08833094","FILE":"3862592","GP_ID":"228285193","NORAD_CAT_ID":"54762","RCS_SIZE":"LARGE","PERIOD":"95.438","EPOCH":"2023-03-16T21:03:33.506496","RA_OF_ASC_NODE":"252.1059","LAUNCH_DATE":"2022-12-17","OBJECT_TYPE":"PAYLOAD","CENTER_NAME":"EARTH","MEAN_MOTION_DDOT":"0.0000000000000","DECAY_DATE":null,"MEAN_ELEMENT_THEORY":"SGP4","ELEMENT_SET_NO":"999","MEAN_ANOMALY":"283.5664","SITE":"AFETR","INCLINATION":"53.2158","COUNTRY_CODE":"US","MEAN_MOTION_DOT":"-0.00002244"},{"INCLINATION":"53.2144","SITE":"AFETR","MEAN_MOTION_DOT":"-0.00000301","COUNTRY_CODE":"US","OBJECT_TYPE":"PAYLOAD","RA_OF_ASC_NODE":"252.1237","LAUNCH_DATE":"2022-12-17","MEAN_ANOMALY":"262.7816","DECAY_DATE":null,"MEAN_ELEMENT_THEORY":"SGP4","ELEMENT_SET_NO":"999","CENTER_NAME":"EARTH","MEAN_MOTION_DDOT":"0.0000000000000","FILE":"3862592","EPOCH":"2023-03-16T21:07:28.601760","PERIOD":"95.438","GP_ID":"228286444","RCS_SIZE":"LARGE","NORAD_CAT_ID":"54763","MEAN_MOTION":"15.08830748","REF_FRAME":"TEME","ARG_OF_PERICENTER":"97.3339","ECCENTRICITY":"0.00014360","EPHEMERIS_TYPE":"0","PERIAPSIS":"538.780","SEMIMAJOR_AXIS":"6917.909","BSTAR":"-0.00000084870000","REV_AT_EPOCH":"1554","OBJECT_ID":"2022-175F","TLE_LINE2":"2 54763  53.2144 252.1237 0001436  97.3339 262.7816 15.08830748 15547","TIME_SYSTEM":"UTC","CLASSIFICATION_TYPE":"U","TLE_LINE1":"1 54763U 22175F   23075.88019215 -.00000301  00000-0 -84870-6 0  9992","OBJECT_NAME":"STARLINK-5191","APOAPSIS":"540.767"},{"APOAPSIS":"540.634","OBJECT_NAME":"STARLINK-5458","TLE_LINE1":"1 54764U 22175G   23075.87282086  .00002109  00000-0  15059-3 0  9996","TIME_SYSTEM":"UTC","CLASSIFICATION_TYPE":"U","OBJECT_ID":"2022-175G","TLE_LINE2":"2 54764  53.2150 252.0754 0001238  89.4149 270.6985 15.08829375 15548","REV_AT_EPOCH":"1554","BSTAR":"0.00015059000000","PERIAPSIS":"538.921","SEMIMAJOR_AXIS":"6917.913","MEAN_MOTION":"15.08829375","EPHEMERIS_TYPE":"0","ECCENTRICITY":"0.00012380","REF_FRAME":"TEME","ARG_OF_PERICENTER":"89.4149","PERIOD":"95.438","EPOCH":"2023-03-16T20:56:51.722304","NORAD_CAT_ID":"54764","RCS_SIZE":"LARGE","GP_ID":"228286195","FILE":"3862592","DECAY_DATE":null,"ELEMENT_SET_NO":"999","MEAN_ANOMALY":"270.6985","MEAN_ELEMENT_THEORY":"SGP4","MEAN_MOTION_DDOT":"0.0000000000000","CENTER_NAME":"EARTH","OBJECT_TYPE":"PAYLOAD","LAUNCH_DATE":"2022-12-17","RA_OF_ASC_NODE":"252.0754","MEAN_MOTION_DOT":"0.00002109","COUNTRY_CODE":"US","INCLINATION":"53.2150","SITE":"AFETR"},{"GP_ID":"228285443","NORAD_CAT_ID":"54765","RCS_SIZE":"LARGE","PERIOD":"95.438","EPOCH":"2023-03-16T21:02:10.264416","FILE":"3862592","REF_FRAME":"TEME","ECCENTRICITY":"0.00011620","ARG_OF_PERICENTER":"91.2957","EPHEMERIS_TYPE":"0","MEAN_MOTION":"15.08835011","COUNTRY_CODE":"US","MEAN_MOTION_DOT":"0.00021287","SITE":"AFETR","INCLINATION":"53.2148","CENTER_NAME":"EARTH","MEAN_MOTION_DDOT":"0.0000000000000","DECAY_DATE":null,"MEAN_ANOMALY":"268.8169","ELEMENT_SET_NO":"999","MEAN_ELEMENT_THEORY":"SGP4","RA_OF_ASC_NODE":"252.0993","LAUNCH_DATE":"2022-12-17","OBJECT_TYPE":"PAYLOAD","CLASSIFICATION_TYPE":"U","TIME_SYSTEM":"UTC","TLE_LINE2":"2 54765  53.2148 252.0993 0001162  91.2957 268.8169 15.08835011 15542","OBJECT_ID":"2022-175H","OBJECT_NAME":"STARLINK-5466","APOAPSIS":"540.564","TLE_LINE1":"1 54765U 22175H   23075.87650769  .00021287  00000-0  13517-2 0  9998","SEMIMAJOR_AXIS":"6917.896","PERIAPSIS":"538.957","REV_AT_EPOCH":"1554","BSTAR":"0.00135170000000"},{"TLE_LINE1":"1 54766U 22175J   23075.86545211 -.00003048  00000-0 -17354-3 0  9994","OBJECT_NAME":"STARLINK-5471","APOAPSIS":"540.837","TLE_LINE2":"2 54766  53.2140 252.0300 0001529  79.9231 280.1934 15.08829019 15540","OBJECT_ID":"2022-175J","CLASSIFICATION_TYPE":"U","TIME_SYSTEM":"UTC","BSTAR":"-0.00017354000000","REV_AT_EPOCH":"1554","SEMIMAJOR_AXIS":"6917.914","PERIAPSIS":"538.721","REF_FRAME":"TEME","ECCENTRICITY":"0.00015290","ARG_OF_PERICENTER":"79.9231","EPHEMERIS_TYPE":"0","MEAN_MOTION":"15.08829019","FILE":"3862592","GP_ID":"228285693","NORAD_CAT_ID":"54766","RCS_SIZE":"LARGE","EPOCH":"2023-03-16T20:46:15.062304","PERIOD":"95.438","LAUNCH_DATE":"2022-12-17","RA_OF_ASC_NODE":"252.0300","OBJECT_TYPE":"PAYLOAD","CENTER_NAME":"EARTH","MEAN_MOTION_DDOT":"0.0000000000000","DECAY_DATE":null,"ELEMENT_SET_NO":"999","MEAN_ANOMALY":"280.1934","MEAN_ELEMENT_THEORY":"SGP4","SITE":"AFETR","INCLINATION":"53.2140","COUNTRY_CODE":"US","MEAN_MOTION_DOT":"-0.00003048"},{"SEMIMAJOR_AXIS":"6917.918","PERIAPSIS":"538.984","REV_AT_EPOCH":"1554","BSTAR":"-0.00000217670000","CLASSIFICATION_TYPE":"U","TIME_SYSTEM":"UTC","TLE_LINE2":"2 54767  53.2151 252.0063 0001154  82.3584 277.7539 15.08827781 15549","OBJECT_ID":"2022-175K","OBJECT_NAME":"STARLINK-5472","APOAPSIS":"540.581","TLE_LINE1":"1 54767U 22175K   23075.86176650 -.00000322  00000-0 -21767-5 0  9999","MEAN_MOTION_DOT":"-0.00000322","COUNTRY_CODE":"US","SITE":"AFETR","INCLINATION":"53.2151","CENTER_NAME":"EARTH","MEAN_MOTION_DDOT":"0.0000000000000","ELEMENT_SET_NO":"999","DECAY_DATE":null,"MEAN_ELEMENT_THEORY":"SGP4","MEAN_ANOMALY":"277.7539","LAUNCH_DATE":"2022-12-17","RA_OF_ASC_NODE":"252.0063","OBJECT_TYPE":"PAYLOAD","GP_ID":"228285945","RCS_SIZE":"LARGE","NORAD_CAT_ID":"54767","PERIOD":"95.438","EPOCH":"2023-03-16T20:40:56.625600","FILE":"3862592","REF_FRAME":"TEME","ECCENTRICITY":"0.00011540","ARG_OF_PERICENTER":"82.3584","EPHEMERIS_TYPE":"0","MEAN_MOTION":"15.08827781"},{"SEMIMAJOR_AXIS":"6917.872","PERIAPSIS":"538.815","REV_AT_EPOCH":"1574","BSTAR":"-0.00004289100000","TIME_SYSTEM":"UTC","CLASSIFICATION_TYPE":"U","TLE_LINE2":"2 54768  53.2179 237.4800 0001333  86.4794 273.6350 15.08842634 15745","OBJECT_ID":"2022-175L","OBJECT_NAME":"STARLINK-5444","APOAPSIS":"540.659","TLE_LINE1":"1 54768U 22175L   23075.81717965 -.00000971  00000-0 -42891-4 0  9995","COUNTRY_CODE":"US","MEAN_MOTION_DOT":"-0.00000971","SITE":"AFETR","INCLINATION":"53.2179","CENTER_NAME":"EARTH","MEAN_MOTION_DDOT":"0.0000000000000","DECAY_DATE":null,"MEAN_ANOMALY":"273.6350","ELEMENT_SET_NO":"999","MEAN_ELEMENT_THEORY":"SGP4","LAUNCH_DATE":"2022-12-17","RA_OF_ASC_NODE":"237.4800","OBJECT_TYPE":"PAYLOAD","GP_ID":"228286695","RCS_SIZE":"LARGE","NORAD_CAT_ID":"54768","EPOCH":"2023-03-16T19:36:44.321760","PERIOD":"95.437","FILE":"3862592","ECCENTRICITY":"0.00013330","REF_FRAME":"TEME","ARG_OF_PERICENTER":"86.4794","EPHEMERIS_TYPE":"0","MEAN_MOTION":"15.08842634"}];
